PLEIADES 1B             
1 39019U 12068A   26066.61746125  .00000585  00000+0  13583-3 0  9991
2 39019  98.2017 143.0414 0001624  87.4710 272.6675 14.58525441706049
GOKTURK 2               
1 39030U 12073A   26066.62893611  .00000358  00000+0  59602-4 0  9995
2 39030  97.6880 269.1092 0001102  58.3833 301.7484 14.75430212709538
LANDSAT 8               
1 39084U 13008A   26066.60032426  .00000531  00000+0  12791-3 0  9990
2 39084  98.1922 138.3602 0001214  91.6027 268.5310 14.57128845683101
SARAL                   
1 39086U 13009A   26066.64582505  .00000179  00000+0  81585-4 0  9991
2 39086  98.5554 254.4875 0001356 186.8090 173.3076 14.32827785681061
GAOFEN-1                
1 39150U 13018A   26066.61509241  .00000778  00000+0  11866-3 0  9995
2 39150  97.9178 140.7118 0016252 231.5281 128.4471 14.76541601693258
VNREDSAT 1              
1 39160U 13021B   26066.65560998  .00000798  00000+0  15713-3 0  9997
2 39160  97.9215 123.9009 0001636  87.1145 273.0246 14.65070022685426
ARIRANG-5 (KOMPSAT-5)   
1 39227U 13042A   26066.60779980  .00001760  00000+0  12996-3 0  9992
2 39227  97.6184 254.7193 0003798 118.1409 242.0202 15.04534573688586
SKYSAT-A                
1 39418U 13066C   26066.58441375  .00004153  00000+0  24223-3 0  9996
2 39418  97.3953 119.1932 0020279 308.3336  51.6071 15.12334062673121
DUBAISAT-2              
1 39419U 13066D   26066.60178203  .00005519  00000+0  34930-3 0  9990
2 39419  97.4528  59.4922 0012367  30.1772 330.0167 15.09324516671069
GPM-CORE                
1 39574U 14009C   26066.63844432  .00009981  00000+0  21746-3 0  9995
2 39574  64.9726 288.3589 0012407 265.3726  94.5997 15.44673161682122
SENTINEL-1A             
1 39634U 14016A   26066.60751824  .00000085  00000+0  27840-4 0  9997
2 39634  98.1816  75.6074 0001338  83.1961 276.9391 14.59198059635206
KAZEOSAT 1              
1 39731U 14024A   26066.64924807  .00000508  00000+0  16790-3 0  9992
2 39731  98.3285 141.5923 0001073  80.9192 279.2120 14.42035222623925
ALOS-2                  
1 39766U 14029A   26066.62224284  .00001699  00000+0  23427-3 0  9992
2 39766  97.9197 165.2494 0001464  97.5841 262.5537 14.79492156636569
KAZEOSAT 2              
1 40010U 14033A   26066.57893623  .00000819  00000+0  10111-3 0  9993
2 40010  97.5480 271.5106 0007365 300.7431  59.3059 14.85331828633872
HODOYOSHI-4             
1 40011U 14033B   26066.62695238  .00002531  00000+0  28144-3 0  9990
2 40011  97.5447 256.3595 0022267 283.5558  76.3179 14.87837106633701
DEIMOS-2                
1 40013U 14033D   26066.61865660  .00003692  00000+0  35678-3 0  9998
2 40013  97.5983 304.6076 0001310  59.6943 300.4407 14.93403059622565
HODOYOSHI-3             
1 40015U 14033F   26066.45725410  .00001978  00000+0  23521-3 0  9999
2 40015  97.6297 233.6662 0032272 331.8073  28.1394 14.85131569632529
