[{"OBJECT_NAME":"PLEIADES 1B","OBJECT_ID":"2012-068A","EPOCH":"2026-03-07T14:49:08.652000","MEAN_MOTION":14.58525441,"ECCENTRICITY":0.00016246,"INCLINATION":98.2017,"RA_OF_ASC_NODE":143.0414,"ARG_OF_PERICENTER":87.471,"MEAN_ANOMALY":272.6675,"EPHEMERIS_TYPE":0,"CLASSIFICATION_TYPE":"U","NORAD_CAT_ID":39019,"ELEMENT_SET_NO":999,"REV_AT_EPOCH":70604,"BSTAR":0.00013583405,"MEAN_MOTION_DOT":5.85e-6,"MEAN_MOTION_DDOT":0},{"OBJECT_NAME":"GOKTURK 2","OBJECT_ID":"2012-073A","EPOCH":"2026-03-07T15:05:40.079904","MEAN_MOTION":14.75430212,"ECCENTRICITY":0.00011027,"INCLINATION":97.688,"RA_OF_ASC_NODE":269.1092,"ARG_OF_PERICENTER":58.3833,"MEAN_ANOMALY":301.7484,"EPHEMERIS_TYPE":0,"CLASSIFICATION_TYPE":"U","NORAD_CAT_ID":39030,"ELEMENT_SET_NO":999,"REV_AT_EPOCH":70953,"BSTAR":5.9601958e-5,"MEAN_MOTION_DOT":3.58e-6,"MEAN_MOTION_DDOT":0},{"OBJECT_NAME":"LANDSAT 8","OBJECT_ID":"2013-008A","EPOCH":"2026-03-07T14:24:28.016064","MEAN_MOTION":14.57128845,"ECCENTRICITY":0.0001214,"INCLINATION":98.1922,"RA_OF_ASC_NODE":138.3602,"ARG_OF_PERICENTER":91.6027,"MEAN_ANOMALY":268.531,"EPHEMERIS_TYPE":0,"CLASSIFICATION_TYPE":"U","NORAD_CAT_ID":39084,"ELEMENT_SET_NO":999,"REV_AT_EPOCH":68310,"BSTAR":0.00012790595,"MEAN_MOTION_DOT":5.31e-6,"MEAN_MOTION_DDOT":0},{"OBJECT_NAME":"SARAL","OBJECT_ID":"2013-009A","EPOCH":"2026-03-07T15:29:59.284320","MEAN_MOTION":14.32827785,"ECCENTRICITY":0.00013564,"INCLINATION":98.5554,"RA_OF_ASC_NODE":254.4875,"ARG_OF_PERICENTER":186.809,"MEAN_ANOMALY":173.3076,"EPHEMERIS_TYPE":0,"CLASSIFICATION_TYPE":"U","NORAD_CAT_ID":39086,"ELEMENT_SET_NO":999,"REV_AT_EPOCH":68106,"BSTAR":8.1585494e-5,"MEAN_MOTION_DOT":1.79e-6,"MEAN_MOTION_DDOT":0},{"OBJECT_NAME":"GAOFEN-1","OBJECT_ID":"2013-018A","EPOCH":"2026-03-07T14:45:43.984224","MEAN_MOTION":14.76541601,"ECCENTRICITY":0.00162527,"INCLINATION":97.9178,"RA_OF_ASC_NODE":140.7118,"ARG_OF_PERICENTER":231.5281,"MEAN_ANOMALY":128.4471,"EPHEMERIS_TYPE":0,"CLASSIFICATION_TYPE":"U","NORAD_CAT_ID":39150,"ELEMENT_SET_NO":999,"REV_AT_EPOCH":69325,"BSTAR":0.00011866442,"MEAN_MOTION_DOT":7.78e-6,"MEAN_MOTION_DDOT":0},{"OBJECT_NAME":"VNREDSAT 1","OBJECT_ID":"2013-021B","EPOCH":"2026-03-07T15:44:04.702272","MEAN_MOTION":14.65070022,"ECCENTRICITY":0.00016361,"INCLINATION":97.9215,"RA_OF_ASC_NODE":123.9009,"ARG_OF_PERICENTER":87.1145,"MEAN_ANOMALY":273.0246,"EPHEMERIS_TYPE":0,"CLASSIFICATION_TYPE":"U","NORAD_CAT_ID":39160,"ELEMENT_SET_NO":999,"REV_AT_EPOCH":68542,"BSTAR":0.00015712926,"MEAN_MOTION_DOT":7.98e-6,"MEAN_MOTION_DDOT":0},{"OBJECT_NAME":"ARIRANG-5 (KOMPSAT-5)","OBJECT_ID":"2013-042A","EPOCH":"2026-03-07T14:35:13.902720","MEAN_MOTION":15.04534573,"ECCENTRICITY":0.00037989,"INCLINATION":97.6184,"RA_OF_ASC_NODE":254.7193,"ARG_OF_PERICENTER":118.1409,"MEAN_ANOMALY":242.0202,"EPHEMERIS_TYPE":0,"CLASSIFICATION_TYPE":"U","NORAD_CAT_ID":39227,"ELEMENT_SET_NO":999,"REV_AT_EPOCH":68858,"BSTAR":0.00012996296,"MEAN_MOTION_DOT":1.76e-5,"MEAN_MOTION_DDOT":0},{"OBJECT_NAME":"SKYSAT-A","OBJECT_ID":"2013-066C","EPOCH":"2026-03-07T14:01:33.348000","MEAN_MOTION":15.12334062,"ECCENTRICITY":0.0020279,"INCLINATION":97.3953,"RA_OF_ASC_NODE":119.1932,"ARG_OF_PERICENTER":308.3336,"MEAN_ANOMALY":51.6071,"EPHEMERIS_TYPE":0,"CLASSIFICATION_TYPE":"U","NORAD_CAT_ID":39418,"ELEMENT_SET_NO":999,"REV_AT_EPOCH":67312,"BSTAR":0.00024222774,"MEAN_MOTION_DOT":4.153e-5,"MEAN_MOTION_DDOT":0},{"OBJECT_NAME":"DUBAISAT-2","OBJECT_ID":"2013-066D","EPOCH":"2026-03-07T14:26:33.967392","MEAN_MOTION":15.09324516,"ECCENTRICITY":0.00123674,"INCLINATION":97.4528,"RA_OF_ASC_NODE":59.4922,"ARG_OF_PERICENTER":30.1772,"MEAN_ANOMALY":330.0167,"EPHEMERIS_TYPE":0,"CLASSIFICATION_TYPE":"U","NORAD_CAT_ID":39419,"ELEMENT_SET_NO":999,"REV_AT_EPOCH":67106,"BSTAR":0.00034930336,"MEAN_MOTION_DOT":5.519e-5,"MEAN_MOTION_DDOT":0},{"OBJECT_NAME":"GPM-CORE","OBJECT_ID":"2014-009C","EPOCH":"2026-03-07T15:19:21.589248","MEAN_MOTION":15.44673161,"ECCENTRICITY":0.00124078,"INCLINATION":64.9726,"RA_OF_ASC_NODE":288.3589,"ARG_OF_PERICENTER":265.3726,"MEAN_ANOMALY":94.5997,"EPHEMERIS_TYPE":0,"CLASSIFICATION_TYPE":"U","NORAD_CAT_ID":39574,"ELEMENT_SET_NO":999,"REV_AT_EPOCH":68212,"BSTAR":0.00021745789,"MEAN_MOTION_DOT":9.981e-5,"MEAN_MOTION_DDOT":0},{"OBJECT_NAME":"SENTINEL-1A","OBJECT_ID":"2014-016A","EPOCH":"2026-03-07T14:34:49.575936","MEAN_MOTION":14.59198059,"ECCENTRICITY":0.00013388,"INCLINATION":98.1816,"RA_OF_ASC_NODE":75.6074,"ARG_OF_PERICENTER":83.1961,"MEAN_ANOMALY":276.9391,"EPHEMERIS_TYPE":0,"CLASSIFICATION_TYPE":"U","NORAD_CAT_ID":39634,"ELEMENT_SET_NO":999,"REV_AT_EPOCH":63520,"BSTAR":2.7839548e-5,"MEAN_MOTION_DOT":8.5e-7,"MEAN_MOTION_DDOT":0},{"OBJECT_NAME":"KAZEOSAT 1","OBJECT_ID":"2014-024A","EPOCH":"2026-03-07T15:34:55.033248","MEAN_MOTION":14.42035222,"ECCENTRICITY":0.0001073,"INCLINATION":98.3285,"RA_OF_ASC_NODE":141.5923,"ARG_OF_PERICENTER":80.9192,"MEAN_ANOMALY":279.212,"EPHEMERIS_TYPE":0,"CLASSIFICATION_TYPE":"U","NORAD_CAT_ID":39731,"ELEMENT_SET_NO":999,"REV_AT_EPOCH":62392,"BSTAR":0.00016790448,"MEAN_MOTION_DOT":5.08e-6,"MEAN_MOTION_DDOT":0},{"OBJECT_NAME":"ALOS-2","OBJECT_ID":"2014-029A","EPOCH":"2026-03-07T14:56:01.781376","MEAN_MOTION":14.79492156,"ECCENTRICITY":0.00014648,"INCLINATION":97.9197,"RA_OF_ASC_NODE":165.2494,"ARG_OF_PERICENTER":97.5841,"MEAN_ANOMALY":262.5537,"EPHEMERIS_TYPE":0,"CLASSIFICATION_TYPE":"U","NORAD_CAT_ID":39766,"ELEMENT_SET_NO":999,"REV_AT_EPOCH":63656,"BSTAR":0.00023427486,"MEAN_MOTION_DOT":1.699e-5,"MEAN_MOTION_DDOT":0},{"OBJECT_NAME":"KAZEOSAT 2","OBJECT_ID":"2014-033A","EPOCH":"2026-03-07T13:53:40.090272","MEAN_MOTION":14.85331828,"ECCENTRICITY":0.00073655,"INCLINATION":97.548,"RA_OF_ASC_NODE":271.5106,"ARG_OF_PERICENTER":300.7431,"MEAN_ANOMALY":59.3059,"EPHEMERIS_TYPE":0,"CLASSIFICATION_TYPE":"U","NORAD_CAT_ID":40010,"ELEMENT_SET_NO":999,"REV_AT_EPOCH":63387,"BSTAR":0.00010110686,"MEAN_MOTION_DOT":8.19e-6,"MEAN_MOTION_DDOT":0},{"OBJECT_NAME":"HODOYOSHI-4","OBJECT_ID":"2014-033B","EPOCH":"2026-03-07T15:02:48.685632","MEAN_MOTION":14.87837106,"ECCENTRICITY":0.00222678,"INCLINATION":97.5447,"RA_OF_ASC_NODE":256.3595,"ARG_OF_PERICENTER":283.5558,"MEAN_ANOMALY":76.3179,"EPHEMERIS_TYPE":0,"CLASSIFICATION_TYPE":"U","NORAD_CAT_ID":40011,"ELEMENT_SET_NO":999,"REV_AT_EPOCH":63370,"BSTAR":0.00028143755,"MEAN_MOTION_DOT":2.531e-5,"MEAN_MOTION_DDOT":0},{"OBJECT_NAME":"DEIMOS-2","OBJECT_ID":"2014-033D","EPOCH":"2026-03-07T14:50:51.930240","MEAN_MOTION":14.93403059,"ECCENTRICITY":0.00013109,"INCLINATION":97.5983,"RA_OF_ASC_NODE":304.6076,"ARG_OF_PERICENTER":59.6943,"MEAN_ANOMALY":300.4407,"EPHEMERIS_TYPE":0,"CLASSIFICATION_TYPE":"U","NORAD_CAT_ID":40013,"ELEMENT_SET_NO":999,"REV_AT_EPOCH":62256,"BSTAR":0.00035677516,"MEAN_MOTION_DOT":3.692e-5,"MEAN_MOTION_DDOT":0},{"OBJECT_NAME":"HODOYOSHI-3","OBJECT_ID":"2014-033F","EPOCH":"2026-03-07T10:58:26.754240","MEAN_MOTION":14.85131569,"ECCENTRICITY":0.00322728,"INCLINATION":97.6297,"RA_OF_ASC_NODE":233.6662,"ARG_OF_PERICENTER":331.8073,"MEAN_ANOMALY":28.1394,"EPHEMERIS_TYPE":0,"CLASSIFICATION_TYPE":"U","NORAD_CAT_ID":40015,"ELEMENT_SET_NO":999,"REV_AT_EPOCH":63252,"BSTAR":0.00023521458,"MEAN_MOTION_DOT":1.978e-5,"MEAN_MOTION_DDOT":0}]
